[
  {
    "name": "ProMedica Physicians Breast Surgery",
    "direct_url": "promedica-physicians-breast-surgery-1",
    "zip_code": "43560"
  },
  {
    "name": "ProMedica Physicians Family Medicine - Fostoria",
    "direct_url": "promedica-physicians-family-medicine-fostoria",
    "zip_code": "44830"
  },
  {
    "name": "ProMedica Physicians Obstetrics | Gynecology - Adrian",
    "direct_url": "promedica-physicians-obstetrics-gynecology-adrian",
    "zip_code": "49221"
  },
  {
    "name": "ProMedica Physicians Obstetrics | Gynecology - Tecumseh",
    "direct_url": "promedica-physicians-obstetrics-gynecology-tecumseh",
    "zip_code": "49286"
  },
  {
    "name": "ProMedica Physicians Cardiothoracic Surgeons",
    "direct_url": "promedica-physicians-cardiothoracic-surgeons",
    "zip_code": "43606"
  },
  {
    "name": "ProMedica Physicians Pediatric Endocrinology",
    "direct_url": "promedica-physicians-pediatric-endocrinology-1",
    "zip_code": "43606"
  },
  {
    "name": "ProMedica Physicians Orthopaedics l Trauma and Adult Reconstruction",
    "direct_url": "promedica-physicians-orthopaedics-l-trauma-and-adult-reconstruction",
    "zip_code": "43606"
  },
  {
    "name": "ProMedica Physicians Internal Medicine l Family Medicine",
    "direct_url": "promedica-physicians-internal-medicine-l-family-medicine",
    "zip_code": "49221"
  },
  {
    "name": "ProMedica Physicians McClure Cardiology",
    "direct_url": "promedica-physicians-mcclure-cardiology",
    "zip_code": "49221"
  },
  {
    "name": "ProMedica Physicians Jobst Vascular - Toledo",
    "direct_url": "promedica-physicians-jobst-vascular-toledo",
    "zip_code": "43606"
  },
  {
    "name": "Maternal-Fetal Medicine at ProMedica Toledo Hospital",
    "direct_url": "maternal-fetal-medicine-at-promedica-toledo-hospital",
    "zip_code": "43606"
  },
  {
    "name": "ProMedica Physicians Orthopaedic Surgery - Adrian",
    "direct_url": "promedica-physicians-orthopaedic-surgery-adrian",
    "zip_code": "49221"
  },
  {
    "name": "ProMedica Physicians Obstetrics | Gynecology - Fostoria",
    "direct_url": "promedica-physicians-obstetrics-gynecology-fostoria",
    "zip_code": "44830"
  },
  {
    "name": "ProMedica Physicians Pediatric Critical Care",
    "direct_url": "promedica-physicians-pediatric-critical-care",
    "zip_code": "43606"
  },
  {
    "name": "ProMedica Psychiatric Services",
    "direct_url": "promedica-psychiatric-services",
    "zip_code": "43512"
  },
  {
    "name": "ProMedica Physicians Family Medicine - Flower",
    "direct_url": "promedica-physicians-family-medicine-flower",
    "zip_code": "43560"
  },
  {
    "name": "ProMedica Genito-Urinary Surgeons - Toledo",
    "direct_url": "promedica-genito-urinary-surgeons-toledo",
    "zip_code": "43606"
  },
  {
    "name": "ProMedica Genito-Urinary Surgeons - Archbold",
    "direct_url": "promedica-genito-urinary-surgeons-archbold",
    "zip_code": "43502"
  },
  {
    "name": "ProMedica Genito-Urinary Surgeons - Fostoria",
    "direct_url": "promedica-genito-urinary-surgeons-fostoria",
    "zip_code": "44830"
  },
  {
    "name": "ProMedica Genito-Urinary Surgeons - Fremont",
    "direct_url": "promedica-genito-urinary-surgeons-fremont",
    "zip_code": "43420"
  },
  {
    "name": "ProMedica Genito-Urinary Surgeons - Maumee",
    "direct_url": "promedica-genito-urinary-surgeons-maumee",
    "zip_code": "43537"
  },
  {
    "name": "ProMedica Pain Management - Defiance",
    "direct_url": "promedica-pain-management-defiance",
    "zip_code": "43512"
  },
  {
    "name": "ProMedica Pain Management - Fostoria",
    "direct_url": "promedica-pain-management-fostoria",
    "zip_code": "44830"
  },
  {
    "name": "ProMedica Pain Management - Fremont",
    "direct_url": "promedica-pain-management-fremont",
    "zip_code": "43420"
  },
  {
    "name": "ProMedica Physicians Assenmacher Orthopaedics - Oregon",
    "direct_url": "promedica-physicians-assenmacher-orthopaedics-oregon",
    "zip_code": "43616"
  },
  {
    "name": "ProMedica Physicians Assenmacher Orthopaedics - Wildwood",
    "direct_url": "promedica-physicians-assenmacher-orthopaedics-wildwood",
    "zip_code": "43615"
  },
  {
    "name": "ProMedica Physicians Beer Orthopaedics",
    "direct_url": "promedica-physicians-beer-orthopaedics",
    "zip_code": "43615"
  },
  {
    "name": "ProMedica Physicians Karamali and Cassavar Cardiology - Perrysburg",
    "direct_url": "promedica-physicians-karamali-and-cassavar-cardiology-perrysburg",
    "zip_code": "43551"
  },
  {
    "name": "ProMedica Physicians Karamali and Cassavar Cardiology - Defiance",
    "direct_url": "promedica-physicians-karamali-and-cassavar-cardiology-defiance",
    "zip_code": "43512"
  },
  {
    "name": "ProMedica Physicians Adult Medicine",
    "direct_url": "promedica-physicians-adult-medicine",
    "zip_code": "43606"
  },
  {
    "name": "ProMedica Physicians Adult Neurology",
    "direct_url": "promedica-physicians-adult-neurology",
    "zip_code": "43551"
  },
  {
    "name": "ProMedica Physicians Alexis Medical Center",
    "direct_url": "promedica-physicians-alexis-medical-center",
    "zip_code": "43606"
  },
  {
    "name": "ProMedica Physicians Arrowhead Family Practice",
    "direct_url": "promedica-physicians-arrowhead-family-practice",
    "zip_code": "43537"
  },
  {
    "name": "ProMedica Physicians Arrowhead Pediatrics",
    "direct_url": "promedica-physicians-arrowhead-pediatrics",
    "zip_code": "43537"
  },
  {
    "name": "ProMedica Physicians General Surgery Bariatrics - Wauseon",
    "direct_url": "promedica-physicians-general-surgery-bariatrics-wauseon",
    "zip_code": "43567"
  },
  {
    "name": "ProMedica Physicians Bay Park Family Practice",
    "direct_url": "promedica-physicians-bay-park-family-practice",
    "zip_code": "43616"
  },
  {
    "name": "ProMedica Physicians Family Medicine - Lambertville",
    "direct_url": "promedica-physicians-family-medicine-lambertville",
    "zip_code": "48144"
  },
  {
    "name": "ProMedica Physicians Cardiology - Toledo",
    "direct_url": "promedica-physicians-cardiology-toledo",
    "zip_code": "43615"
  },
  {
    "name": "ProMedica Physicians Cardiology - Maumee",
    "direct_url": "promedica-physicians-cardiology-maumee",
    "zip_code": "43537"
  },
  {
    "name": "ProMedica Physicians Cardiology - Adrian",
    "direct_url": "promedica-physicians-cardiology-adrian",
    "zip_code": "49221"
  },
  {
    "name": "ProMedica Physicians Cardiology - Bowling Green",
    "direct_url": "promedica-physicians-cardiology-bowling-green",
    "zip_code": "43402"
  },
  {
    "name": "ProMedica Physicians Cardiology - Fostoria",
    "direct_url": "promedica-physicians-cardiology-fostoria",
    "zip_code": "44830"
  },
  {
    "name": "ProMedica Physicians Cardiology - Fremont",
    "direct_url": "promedica-physicians-cardiology-fremont",
    "zip_code": "43420"
  },
  {
    "name": "ProMedica Physicians Cardiology - Napoleon",
    "direct_url": "promedica-physicians-cardiology-napoleon",
    "zip_code": "43545"
  },
  {
    "name": "ProMedica Physicians Cardiology - Bay Park",
    "direct_url": "promedica-physicians-cardiology-bay-park",
    "zip_code": "43616"
  },
  {
    "name": "ProMedica Physicians Cardiology - Port Clinton",
    "direct_url": "promedica-physicians-cardiology-port-clinton",
    "zip_code": "43452"
  },
  {
    "name": "ProMedica Physicians Cardiology - Wauseon",
    "direct_url": "promedica-physicians-cardiology-wauseon",
    "zip_code": "43567"
  },
  {
    "name": "ProMedica Physicians Silverman Cardiology",
    "direct_url": "promedica-physicians-silverman-cardiology",
    "zip_code": "49221"
  },
  {
    "name": "ProMedica Physicians Defiance Internal Medicine",
    "direct_url": "promedica-physicians-defiance-internal-medicine",
    "zip_code": "43512"
  },
  {
    "name": "ProMedica Physicians Defiance Orthopaedic Center",
    "direct_url": "promedica-physicians-defiance-orthopaedic-center",
    "zip_code": "43512"
  },
  {
    "name": "ProMedica Physicians Defiance Regional Ophthalmology",
    "direct_url": "promedica-physicians-defiance-regional-ophthalmology",
    "zip_code": "43512"
  },
  {
    "name": "ProMedica Physicians Ear, Nose and Throat - Sylvania",
    "direct_url": "promedica-physicians-ear-nose-and-throat-sylvania",
    "zip_code": "43560"
  },
  {
    "name": "ProMedica Physicians Ear, Nose and Throat - Perrysburg",
    "direct_url": "promedica-physicians-ear-nose-and-throat-perrysburg",
    "zip_code": "43551"
  },
  {
    "name": "ProMedica Physicians Ear, Nose and Throat - Adrian",
    "direct_url": "promedica-physicians-ear-nose-and-throat-adrian",
    "zip_code": "49221"
  },
  {
    "name": "ProMedica Physicians Ear, Nose and Throat - Tecumseh",
    "direct_url": "promedica-physicians-ear-nose-and-throat-tecumseh",
    "zip_code": "49286"
  },
  {
    "name": "ProMedica Physicians Ear, Nose and Throat - Defiance",
    "direct_url": "promedica-physicians-ear-nose-and-throat-defiance",
    "zip_code": "43512"
  },
  {
    "name": "ProMedica Physicians Eye Care - Monroe",
    "direct_url": "promedica-physicians-eye-care-monroe",
    "zip_code": "48162"
  },
  {
    "name": "ProMedica Physicians Eye Care - Sylvania",
    "direct_url": "promedica-physicians-eye-care-sylvania",
    "zip_code": "43560"
  },
  {
    "name": "ProMedica Physicians Family Medicine - Fremont",
    "direct_url": "promedica-physicians-family-medicine-fremont-1",
    "zip_code": "43420"
  },
  {
    "name": "ProMedica Physicians Defiance Family Medicine",
    "direct_url": "promedica-physicians-defiance-family-medicine",
    "zip_code": "43512"
  },
  {
    "name": "ProMedica Physicians Family Medicine - Metamora",
    "direct_url": "promedica-physicians-family-medicine-metamora",
    "zip_code": "43540"
  },
  {
    "name": "ProMedica Physicians Family Practice of Toledo",
    "direct_url": "promedica-physicians-family-practice-of-toledo",
    "zip_code": "43560"
  },
  {
    "name": "ProMedica Physicians General Surgery - Defiance",
    "direct_url": "promedica-physicians-general-surgery-defiance",
    "zip_code": "43512"
  },
  {
    "name": "ProMedica Physicians Family Medicine - Rossford",
    "direct_url": "promedica-physicians-family-medicine-rossford",
    "zip_code": "43460"
  },
  {
    "name": "ProMedica Physicians Infectious Disease and Pediatrics",
    "direct_url": "promedica-physicians-infectious-disease-and-pediatrics",
    "zip_code": "43420"
  },
  {
    "name": "ProMedica Physicians Obstetrics | Gynecology - Maumee",
    "direct_url": "promedica-physicians-obstetrics-gynecology-maumee",
    "zip_code": "43537"
  },
  {
    "name": "ProMedica Physicians Neurology - Toledo",
    "direct_url": "promedica-physicians-neurology-toledo",
    "zip_code": "43606"
  },
  {
    "name": "ProMedica Physicians Obstetrics | Gynecology - Fremont",
    "direct_url": "promedica-physicians-obstetrics-gynecology-fremont",
    "zip_code": "43420"
  },
  {
    "name": "ProMedica Physicians Obstetrics | Gynecology - Port Clinton",
    "direct_url": "promedica-physicians-obstetrics-gynecology-port-clinton",
    "zip_code": "43452"
  },
  {
    "name": "ProMedica Physicians Obstetrics | Gynecology - Defiance",
    "direct_url": "promedica-physicians-obstetrics-gynecology-defiance",
    "zip_code": "43512"
  },
  {
    "name": "ProMedica Physicians Obstetrics | Gynecology - Sylvania",
    "direct_url": "promedica-physicians-obstetrics-i-gynecology-sylvania",
    "zip_code": "43560"
  },
  {
    "name": "ProMedica Physicians Obstetrics I Gynecology - Perrysburg",
    "direct_url": "promedica-physicians-obstetrics-gynecology-perrysburg",
    "zip_code": "43551"
  },
  {
    "name": "ProMedica Physicians Sunforest Obstetrics | Gynecology",
    "direct_url": "promedica-physicians-sunforest-obstetrics-gynecology",
    "zip_code": "43560"
  },
  {
    "name": "ProMedica Physicians Physical Medicine & Rehabilitation - Oregon",
    "direct_url": "promedica-physicians-physical-medicine-rehabilitation-oregon",
    "zip_code": "43616"
  },
  {
    "name": "ProMedica Physicians Pediatric Cardiology - Toledo",
    "direct_url": "promedica-physicians-pediatric-cardiology-toledo",
    "zip_code": "43606"
  },
  {
    "name": "ProMedica Physicians Pediatric Cardiology - Lima",
    "direct_url": "promedica-physicians-pediatric-cardiology-lima",
    "zip_code": "45804"
  },
  {
    "name": "ProMedica Physicians Pediatric Cardiology - Sandusky ",
    "direct_url": "promedica-physicians-pediatric-cardiology-sandusky",
    "zip_code": "44870"
  },
  {
    "name": "ProMedica Physicians Pediatric Gastroenterology - Toledo",
    "direct_url": "promedica-physicians-pediatric-gastroenterology-toledo",
    "zip_code": "43606"
  },
  {
    "name": "ProMedica Physicians Pediatric Gastroenterology - Lima",
    "direct_url": "promedica-physicians-pediatric-gastroenterology-lima",
    "zip_code": "45804"
  },
  {
    "name": "ProMedica Physicians Pediatric Gastroenterology - Monroe",
    "direct_url": "promedica-physicians-pediatric-gastroenterology-monroe",
    "zip_code": "48162"
  },
  {
    "name": "ProMedica Physicians Pediatric Orthopaedic Surgery",
    "direct_url": "promedica-physicians-pediatric-orthopaedic-surgery",
    "zip_code": "43606"
  },
  {
    "name": "ProMedica Physicians Pediatric Pulmonary and Sleep Medicine and Cystic Fibrosis - Defiance",
    "direct_url": "promedica-physicians-pediatric-pulmonary-and-sleep-medicine-and-cystic-fibrosis-defiance",
    "zip_code": "43512"
  },
  {
    "name": "ProMedica Physicians Pediatrics Sam M. Abaza, MD",
    "direct_url": "promedica-physicians-pediatrics-sam-m-abaza-md",
    "zip_code": "43616"
  },
  {
    "name": "ProMedica Physicians Perrysburg Pediatrics",
    "direct_url": "promedica-physicians-perrysburg-pediatrics",
    "zip_code": "43551"
  },
  {
    "name": "ProMedica Physicians Port Sylvania Family Practice",
    "direct_url": "promedica-physicians-port-sylvania-family-practice",
    "zip_code": "43560"
  },
  {
    "name": "ProMedica Physicians Behavioral Health - Sylvania",
    "direct_url": "promedica-physicians-behavioral-health-sylvania",
    "zip_code": "43560"
  },
  {
    "name": "ProMedica Physicians PulmonarySleep Medicine - Toledo",
    "direct_url": "promedica-physicians-pulmonary-sleep-medicine-toledo",
    "zip_code": "43560"
  },
  {
    "name": "ProMedica Physicians PulmonarySleep Medicine - Adrian",
    "direct_url": "promedica-physicians-pulmonary-sleep-medicine-adrian",
    "zip_code": "49221"
  },
  {
    "name": "ProMedica Physicians PulmonarySleep Medicine - Defiance",
    "direct_url": "promedica-physicians-pulmonary-sleep-medicine-defiance",
    "zip_code": "43512"
  },
  {
    "name": "ProMedica Physicians River Road Family Medicine",
    "direct_url": "promedica-physicians-river-road-family-medicine",
    "zip_code": "43551"
  },
  {
    "name": "ProMedica Physicians Sylvania Adult & Pediatric Medicine",
    "direct_url": "promedica-physicians-sylvania-adult-pediatric-medicine",
    "zip_code": "43560"
  },
  {
    "name": "ProMedica Physicians West Central Medical Group",
    "direct_url": "promedica-physicians-west-central-medical-group",
    "zip_code": "43606"
  },
  {
    "name": "ProMedica Physicians General Surgery I Trauma",
    "direct_url": "promedica-physicians-general-surgery-i-trauma",
    "zip_code": "43606"
  },
  {
    "name": "ProMedica Physicians General Surgery - Oregon",
    "direct_url": "promedica-physicians-general-surgery-oregon",
    "zip_code": "43616"
  },
  {
    "name": "ProMedica Physicians Westgate Family Medicine",
    "direct_url": "promedica-physicians-westgate-family-medicine",
    "zip_code": "43560"
  },
  {
    "name": "ProMedica Physicians Wildwood Family Practice",
    "direct_url": "promedica-physicians-wildwood-family-practice",
    "zip_code": "43615"
  },
  {
    "name": "ProMedica Physicians Internal Medicine - Woodley",
    "direct_url": "promedica-physicians-internal-medicine-woodley",
    "zip_code": "43560"
  },
  {
    "name": "ProMedica EAP",
    "direct_url": "promedica-eap",
    "zip_code": "43420"
  },
  {
    "name": "ProMedica Physicians Palliative Medicine",
    "direct_url": "promedica-physicians-palliative-medicine",
    "zip_code": "43606"
  },
  {
    "name": "ProMedica Womens Services",
    "direct_url": "promedica-women-s-services",
    "zip_code": "43606"
  },
  {
    "name": "ProMedica Physicians Family Medicine - Onsted",
    "direct_url": "promedica-physicians-family-medicine-onsted",
    "zip_code": "49265"
  },
  {
    "name": "ProMedica Physicians Tecumseh Family Medicine",
    "direct_url": "promedica-physicians-tecumseh-family-medicine",
    "zip_code": "49286"
  },
  {
    "name": "ProMedica Physicians Internal Medicine I Pediatrics I Family Medicine",
    "direct_url": "promedica-physicians-internal-medicine-i-pediatrics-i-family-medicine",
    "zip_code": "49228"
  },
  {
    "name": "ProMedica Physicians Oregon Pediatrics",
    "direct_url": "promedica-physicians-oregon-pediatrics",
    "zip_code": "43616"
  },
  {
    "name": "ProMedica Physicians Internal Medicine I Family Medicine - Adrian",
    "direct_url": "promedica-physicians-internal-medicine-i-family-medicine-adrian",
    "zip_code": "49221"
  },
  {
    "name": "ProMedica Physicians Ear, Nose And Throat  - Fremont",
    "direct_url": "promedica-physicians-ear-nose-and-throat-fremont",
    "zip_code": "43420"
  },
  {
    "name": "ProMedica Physicians Orthopaedic Surgery - Elm Ave.",
    "direct_url": "promedica-physicians-orthopaedic-surgery-elm-ave",
    "zip_code": "48162"
  },
  {
    "name": "ProMedica Physicians Neurology - Maumee",
    "direct_url": "promedica-physicians-neurology-maumee",
    "zip_code": "43537"
  },
  {
    "name": "ProMedica Physicians Palliative Care",
    "direct_url": "promedica-physicians-palliative-care",
    "zip_code": "43560"
  },
  {
    "name": "ProMedica Physicians PulmonarySleep Medicine - Fostoria",
    "direct_url": "promedica-physicians-pulmonary-sleep-medicine-fostoria",
    "zip_code": "44830"
  },
  {
    "name": "ProMedica Physicians Obstetrics | Gynecology - Clyde",
    "direct_url": "promedica-physicians-obstetrics-gynecology-clyde",
    "zip_code": "43410"
  },
  {
    "name": "ProMedica Physicians Podiatry - Toledo",
    "direct_url": "promedica-physicians-podiatry-toledo",
    "zip_code": "43623"
  },
  {
    "name": "ProMedica Physicians Family Medicine - Monroe",
    "direct_url": "promedica-physicians-family-medicine-monroe",
    "zip_code": "48161"
  },
  {
    "name": "ProMedica Physicians Orthopaedic Surgery - Monroe St.",
    "direct_url": "promedica-physicians-orthopaedic-surgery-monroe-st",
    "zip_code": "48162"
  },
  {
    "name": "Consultants in Laboratory Medicine ",
    "direct_url": "consultants-in-laboratory-medicine",
    "zip_code": "43606"
  },
  {
    "name": "ProMedica Physicians Obstetrics and Gynecology - Oregon",
    "direct_url": "promedica-physicians-obstetrics-and-gynecology-oregon",
    "zip_code": "43616"
  },
  {
    "name": "ProMedica Physicians Obstetrics and Gynecology - Toledo",
    "direct_url": "promedica-physicians-obstetrics-gynecology-toledo",
    "zip_code": "43606"
  },
  {
    "name": "ProMedica Physicians Jobst Vascular - Adrian",
    "direct_url": "promedica-physicians-jobst-vascular-adrian",
    "zip_code": "49221"
  },
  {
    "name": "ProMedica Physicians Jobst Vascular - Defiance",
    "direct_url": "promedica-physicians-jobst-vascular-defiance",
    "zip_code": "43512"
  },
  {
    "name": "ProMedica Physicians Jobst Vascular  - Fremont",
    "direct_url": "promedica-physicians-jobst-vascular-fremont",
    "zip_code": "43420"
  },
  {
    "name": "ProMedica Physicians Jobst Vascular - Tecumseh",
    "direct_url": "promedica-physicians-jobst-vascular-tecumseh",
    "zip_code": "49286"
  },
  {
    "name": "ProMedica Physicians Jobst Vascular  - Wauseon",
    "direct_url": "promedica-physicians-jobst-vascular-wauseon",
    "zip_code": "43567"
  },
  {
    "name": "ProMedica Physicians Jobst Vascular - Monroe",
    "direct_url": "promedica-physicians-jobst-vascular-monroe",
    "zip_code": "48162"
  },
  {
    "name": "ProMedica Physicians Toledo Orthopaedic and Spine Surgeons",
    "direct_url": "promedica-physicians-toledo-orthopaedic-and-spine-surgeons",
    "zip_code": "43615"
  },
  {
    "name": "ProMedica Physicians Jobst Vascular - Bellevue ",
    "direct_url": "promedica-physicians-jobst-vascular-bellevue",
    "zip_code": "44811"
  },
  {
    "name": "ProMedica Physicians Allergy and Immunology - Oregon",
    "direct_url": "promedica-physicians-allergy-and-immunology-oregon",
    "zip_code": "43616"
  },
  {
    "name": "ProMedica Physicians Physical Medicine and Rehabilitation",
    "direct_url": "promedica-physicians-physical-medicine-and-rehabilitation",
    "zip_code": "43615"
  },
  {
    "name": "ProMedica Physicians Family Medicine I Sports Medicine",
    "direct_url": "promedica-physicians-family-medicine-i-sports-medicine",
    "zip_code": "49221"
  },
  {
    "name": "ProMedica Physicians Neurosurgery - Toledo",
    "direct_url": "promedica-physicians-neurosurgery-toledo",
    "zip_code": "43606"
  },
  {
    "name": "ProMedica Physicians General Surgery",
    "direct_url": "promedica-physicians-general-surgery",
    "zip_code": "43560"
  },
  {
    "name": "ProMedica Physicians Internal Medicine - Sylvania",
    "direct_url": "promedica-physicians-internal-medicine-sylvania",
    "zip_code": "43560"
  },
  {
    "name": "ProMedica Physicians Toledo Pediatrics",
    "direct_url": "promedica-physicians-toledo-pediatrics",
    "zip_code": "43560"
  },
  {
    "name": "ProMedica Physicians Weight Loss Surgery - Sylvania",
    "direct_url": "promedica-physicians-general-surgery-bariatrics-sylvania",
    "zip_code": "43560"
  },
  {
    "name": "ProMedica Physicians Jobst Vascular - Sylvania",
    "direct_url": "promedica-physicians-jobst-vascular-sylvania-1",
    "zip_code": "43560"
  },
  {
    "name": "ProMedica Physicians at Owens Corning",
    "direct_url": "promedica-physicians-at-owens-corning",
    "zip_code": "43659"
  },
  {
    "name": "ProMedica Physicians Obstetrics | Gynecology - Rossford",
    "direct_url": "promedica-physicians-obstetrics-gynecology-rossford",
    "zip_code": "43460"
  },
  {
    "name": "ProMedica Physicians Orthopaedic Surgery - Sylvania",
    "direct_url": "promedica-physicians-orthopaedic-surgery-sylvania",
    "zip_code": "43560"
  },
  {
    "name": "ProMedica Physicians Jobst Vascular- Bowling Green",
    "direct_url": "promedica-physicians-jobst-vascular-bowling-green",
    "zip_code": "43402"
  },
  {
    "name": "ProMedica Physicians Jobst Vascular - Tiffin",
    "direct_url": "promedica-physicians-jobst-vascular-tiffin",
    "zip_code": "44883"
  },
  {
    "name": "ProMedica Physicians General Surgery - Fremont",
    "direct_url": "promedica-physicians-general-surgery-fremont",
    "zip_code": "43420"
  },
  {
    "name": "ProMedica Physicians General Surgery - Monroe",
    "direct_url": "promedica-physicians-general-surgery-monroe-1",
    "zip_code": "48162"
  },
  {
    "name": "ProMedica Physicians Family Medicine - Sylvania",
    "direct_url": "promedica-physicians-family-medicine-sylvania",
    "zip_code": "43560"
  },
  {
    "name": "ProMedica Physicians Internal Medicine - Elmore",
    "direct_url": "promedica-physicians-internal-medicine-elmore",
    "zip_code": "43416"
  },
  {
    "name": "ProMedica Physicians Hepatobiliary, Pancreatic and Endocrine Surgery",
    "direct_url": "promedica-physicians-hepatobiliary-pancreatic-and-endocrine-surgery",
    "zip_code": "43606"
  },
  {
    "name": "ProMedica Physicians Jobst Vascular - Maumee",
    "direct_url": "promedica-physicians-jobst-vascular-maumee",
    "zip_code": "43537"
  },
  {
    "name": "ProMedica Physicians Family Medicine - Carleton",
    "direct_url": "promedica-physicians-family-medicine-carleton",
    "zip_code": "48117"
  },
  {
    "name": "ProMedica Physicians Family Medicine",
    "direct_url": "promedica-physicians-family-medicine",
    "zip_code": "48161"
  },
  {
    "name": "ProMedica Physicians Colorectal Surgery",
    "direct_url": "promedica-physicians-colorectal-surgery",
    "zip_code": "43560"
  },
  {
    "name": "ProMedica Physicians Family Medicine - Oregon",
    "direct_url": "promedica-physicians-family-medicine-oregon",
    "zip_code": "43616"
  },
  {
    "name": "ProMedica Physicians Cardiology - Monroe",
    "direct_url": "promedica-physicians-cardiology-monroe",
    "zip_code": "48162"
  },
  {
    "name": "ProMedica Physicians Jobst Vascular - Oregon",
    "direct_url": "promedica-physicians-jobst-vascular-oregon",
    "zip_code": "43616"
  },
  {
    "name": "ProMedica Genito-Urinary Surgeons - Monroe",
    "direct_url": "promedica-genito-urinary-surgeons-monroe",
    "zip_code": "48162"
  },
  {
    "name": "ProMedica Physicians Internal Medicine - Clyde",
    "direct_url": "promedica-physicians-internal-medicine-clyde",
    "zip_code": "43410"
  },
  {
    "name": "ProMedica Physicians Family Medicine - Newport",
    "direct_url": "promedica-physicians-family-medicine-newport",
    "zip_code": "48166"
  },
  {
    "name": "ProMedica Physicians Family Medicine - Port Clinton",
    "direct_url": "promedica-physicians-family-medicine-port-clinton",
    "zip_code": "43452"
  },
  {
    "name": "ProMedica Physicians Family Medicine - Fremont",
    "direct_url": "promedica-physicians-family-medicine-fremont",
    "zip_code": "43420"
  },
  {
    "name": "ProMedica Physicians Rheumatology",
    "direct_url": "promedica-physicians-rheumatology",
    "zip_code": "43560"
  },
  {
    "name": "ProMedica HematologyOncology Associates - Wauseon",
    "direct_url": "promedica-hematology-oncology-associates-wauseon",
    "zip_code": "43567"
  },
  {
    "name": "ProMedica Physicians Behavioral Health - Fremont",
    "direct_url": "promedica-physicians-behavioral-health-fremont",
    "zip_code": "43420"
  },
  {
    "name": "ProMedica Physicians Behavioral Health - Findlay",
    "direct_url": "promedica-physicians-behavioral-health-findlay",
    "zip_code": "45840"
  },
  {
    "name": "ProMedica Physicians Urology - Adrian",
    "direct_url": "promedica-physicians-urology-adrian",
    "zip_code": "49221"
  },
  {
    "name": "ProMedica Physicians at Owens Corning - Newark",
    "direct_url": "promedica-physicians-at-owens-corning-newark",
    "zip_code": "43055"
  },
  {
    "name": "ProMedica Physicians at Owens Corning - Granville",
    "direct_url": "promedica-physicians-at-owens-corning-granville",
    "zip_code": "43023"
  },
  {
    "name": "ProMedica Physicians Neurology - Monroe",
    "direct_url": "promedica-physicians-neurology-monroe",
    "zip_code": "48162"
  },
  {
    "name": "ProMedica Physicians Neurology - Tecumseh",
    "direct_url": "promedica-physicians-neurology-tecumseh",
    "zip_code": "49286"
  },
  {
    "name": "ProMedica Behavioral Health - Defiance",
    "direct_url": "promedica-behavioral-health-defiance",
    "zip_code": "43512"
  },
  {
    "name": "ProMedica Physicians Neurosurgery - Defiance",
    "direct_url": "promedica-physicians-neurosurgery-defiance",
    "zip_code": "43512"
  },
  {
    "name": "ProMedica Physicians Monroe Cardiology - Amin",
    "direct_url": "promedica-physicians-monroe-cardiology-amin",
    "zip_code": "48162"
  },
  {
    "name": "ProMedica Physicians Obstetrics | Gynecology - Levis Commons",
    "direct_url": "promedica-physicians-obstetrics-gynecology-levis-commons",
    "zip_code": "43551"
  },
  {
    "name": "ProMedica Physicians Podiatry - Adrian",
    "direct_url": "promedica-physicians-podiatry-adrian",
    "zip_code": "49221"
  },
  {
    "name": "ProMedica Physicians Family Medicine - Monroe",
    "direct_url": "promedica-physicians-family-medicine-monroe-1",
    "zip_code": "48162"
  },
  {
    "name": "ProMedica Physicians Ear, Nose and Throat - Maumee",
    "direct_url": "promedica-physicians-ear-nose-and-throat-maumee",
    "zip_code": "43537"
  },
  {
    "name": "ProMedica Physicians Family Medicine - Adrian",
    "direct_url": "promedica-physicians-family-medicine-adrian",
    "zip_code": "49221"
  },
  {
    "name": "ProMedica Physicians Family Medicine - Hudson",
    "direct_url": "promedica-physicians-family-medicine-hudson",
    "zip_code": "49247"
  },
  {
    "name": "ProMedica Physicians Adrian Pediatrics",
    "direct_url": "promedica-physicians-adrian-pediatrics",
    "zip_code": "49221"
  },
  {
    "name": "Coldwater Family Medical Center",
    "direct_url": "coldwater-family-medical-center",
    "zip_code": "49036"
  },
  {
    "name": "Litchfield Family Medical Center",
    "direct_url": "litchfield-family-medical-center",
    "zip_code": "49252"
  },
  {
    "name": "ProMedica Family Practice of Bronson",
    "direct_url": "promedica-family-practice-of-bronson",
    "zip_code": "49028"
  },
  {
    "name": "ProMedica Physicians Neurosurgery - Perrysburg",
    "direct_url": "promedica-physicians-neurosurgery-perrysburg",
    "zip_code": "43551"
  },
  {
    "name": "ProMedica Physicians Obstetrics l Gynecology - Paulding",
    "direct_url": "promedica-physicians-obstetrics-l-gynecology-paulding",
    "zip_code": "45879"
  },
  {
    "name": "ProMedica Pelvic Health",
    "direct_url": "promedica-pelvic-health",
    "zip_code": "43560"
  },
  {
    "name": "ProMedica Physicians Health Specialists of Lenawee",
    "direct_url": "promedica-physicians-health-specialists-of-lenawee",
    "zip_code": "49286"
  },
  {
    "name": "ProMedica Physicians Neurosurgery - Monroe",
    "direct_url": "promedica-physicians-neurosurgery-monroe",
    "zip_code": "48162"
  },
  {
    "name": "ProMedica Physicians PulmonarySleep Medicine - Sylvania",
    "direct_url": "promedica-physicians-pulmonary-sleep-medicine-sylvania",
    "zip_code": "43560"
  },
  {
    "name": "ProMedica Physicians Family Medicine - Fostoria",
    "direct_url": "promedica-physicians-family-medicine-fostoria-1",
    "zip_code": "44830"
  },
  {
    "name": "ProMedica Physicians Behavioral Health - Fostoria",
    "direct_url": "promedica-physicians-behavioral-health-fostoria",
    "zip_code": "44830"
  },
  {
    "name": "ProMedica Physicians Urogynecology",
    "direct_url": "promedica-physicians-urogynecology",
    "zip_code": "43560"
  },
  {
    "name": "ProMedica Physicians Gynecology",
    "direct_url": "promedica-physicians-gynecology",
    "zip_code": "43560"
  },
  {
    "name": "ProMedica Physicians Allergy and Immunology - Maumee",
    "direct_url": "promedica-physicians-allergy-and-immunology-maumee",
    "zip_code": "43537"
  },
  {
    "name": "ProMedica Physicians Neurology - Multi-Specialty Care",
    "direct_url": "promedica-physicians-neurology-multi-specialty-care",
    "zip_code": "43551"
  },
  {
    "name": "ProMedica Physicians Orthopaedics - Multi-Specialty Care",
    "direct_url": "promedica-physicians-orthopaedics-multi-specialty-care",
    "zip_code": "43551"
  },
  {
    "name": "ProMedica Physicians Ear, Nose And Throat - Coldwater",
    "direct_url": "promedica-physicians-ear-nose-and-throat-coldwater",
    "zip_code": "49036"
  },
  {
    "name": "Coldwater Obstetrics | Gynecology",
    "direct_url": "coldwater-obstetrics-gynecology",
    "zip_code": "49036"
  },
  {
    "name": "ProMedica Physicians General Surgery - Coldwater",
    "direct_url": "promedica-physicians-general-surgery-coldwater",
    "zip_code": "49036"
  },
  {
    "name": "ProMedica Physicians Internal Medicine | Family Medicine - Perrysburg",
    "direct_url": "promedica-physicians-internal-medicine-i-family-medicine-perrysburg",
    "zip_code": "43551"
  },
  {
    "name": "ProMedica Behavioral Health - Monroe",
    "direct_url": "promedica-behavioral-health-monroe",
    "zip_code": "48162"
  },
  {
    "name": "ProMedica Physicians Behavioral Health - Coldwater",
    "direct_url": "promedica-physicians-behavioral-health-coldwater",
    "zip_code": "49036"
  },
  {
    "name": "ProMedica Physicians PulmonarySleep Medicine - Tecumseh",
    "direct_url": "promedica-physicians-pulmonary-sleep-medicine-tecumseh",
    "zip_code": "49286"
  },
  {
    "name": "ProMedica Physicians PulmonarySleep Medicine - Monroe",
    "direct_url": "promedica-physicians-pulmonary-sleep-medicine-monroe",
    "zip_code": "48162"
  },
  {
    "name": "ProMedica Physicians Behavioral Health - Lenawee",
    "direct_url": "promedica-physicians-behavioral-health-lenawee",
    "zip_code": "49286"
  },
  {
    "name": "ProMedica Physicians Monroe Gastroenterology",
    "direct_url": "promedica-physicians-monroe-gastroenterology",
    "zip_code": "48162"
  },
  {
    "name": "ProMedica Physicians Rheumatology - Fremont",
    "direct_url": "promedica-physicians-rheumatology-fremont",
    "zip_code": "43420"
  },
  {
    "name": "ProMedica Physicians Defiance Internal Medicine - Waterville",
    "direct_url": "promedica-physicians-defiance-internal-medicine-waterville",
    "zip_code": "43566"
  },
  {
    "name": "ProMedica Physicians Neurosurgery - Adrian",
    "direct_url": "promedica-physicians-neurosurgery-adrian",
    "zip_code": "49221"
  },
  {
    "name": "ProMedica Physicians Jobst Vascular - Perrysburg",
    "direct_url": "promedica-physicians-jobst-vascular-perrysburg",
    "zip_code": "43551"
  },
  {
    "name": "ProMedica Physicians Colorectal Surgery - Perrysburg",
    "direct_url": "promedica-physicians-colorectal-surgery-perrysburg",
    "zip_code": "43551"
  },
  {
    "name": "ProMedica Physicians Internal Medicine - Port Clinton",
    "direct_url": "promedica-physicians-internal-medicine-port-clinton",
    "zip_code": "43452"
  },
  {
    "name": "ProMedica Regenerative Medicine",
    "direct_url": "promedica-regenerative-medicine",
    "zip_code": "43615"
  },
  {
    "name": "ProMedica Physicians Weight Loss Surgery - Monroe",
    "direct_url": "promedica-physicians-weight-loss-surgery-monroe",
    "zip_code": "48162"
  },
  {
    "name": "ProMedica Physicians Gynecology | Oncology - Sylvania",
    "direct_url": "promedica-physicians-gynecology-oncology-sylvania",
    "zip_code": "43560"
  },
  {
    "name": "ProMedica Physicians Allergy and Immunology - Toledo",
    "direct_url": "promedica-physicians-allergy-and-immunology-toledo",
    "zip_code": "43623"
  },
  {
    "name": "ProMedica Physicians Jobst Vascular - Port Clinton",
    "direct_url": "promedica-physicians-jobst-vascular-port-clinton",
    "zip_code": "43452"
  },
  {
    "name": "ProMedica Physicians Neurology - Fremont",
    "direct_url": "promedica-physicians-neurology-fremont",
    "zip_code": "43420"
  },
  {
    "name": "ProMedica Physicians Neurology - Fostoria",
    "direct_url": "promedica-physicians-neurology-fostoria",
    "zip_code": "44830"
  },
  {
    "name": "ProMedica Physicians Pediatric Cardiology - Fremont",
    "direct_url": "promedica-physicians-pediatric-cardiology-fremont",
    "zip_code": "43420"
  },
  {
    "name": "ProMedica Physicians Gbur Cardiology",
    "direct_url": "promedica-physicians-gbur-cardiology",
    "zip_code": "43537"
  },
  {
    "name": "ProMedica Physicians Infectious Disease",
    "direct_url": "promedica-physicians-infectious-disease",
    "zip_code": "43560"
  },
  {
    "name": "ProMedica Physicians Internal Medicine I Pediatrics",
    "direct_url": "promedica-physicians-internal-medicine-i-pediatrics",
    "zip_code": "43420"
  },
  {
    "name": "ProMedica Physicians Plastic and Reconstructive Surgery",
    "direct_url": "promedica-physicians-plastic-and-reconstructive-surgery",
    "zip_code": "43617"
  },
  {
    "name": "ProMedica Physicians Internal Medicine - Oregon",
    "direct_url": "promedica-physicians-internal-medicine-oregon",
    "zip_code": "43616"
  },
  {
    "name": "ProMedica Physicians Internal Medicine - Tiffin",
    "direct_url": "promedica-physicians-internal-medicine-tiffin",
    "zip_code": "44883"
  },
  {
    "name": "ProMedica Physicians Weight Management",
    "direct_url": "promedica-physicians-weight-management",
    "zip_code": "49286"
  },
  {
    "name": "ProMedica Physicians Defiance Family Medicine - Napoleon",
    "direct_url": "promedica-physicians-defiance-family-medicine-napoleon",
    "zip_code": "43545"
  },
  {
    "name": "ProMedica Physicians Neurology - Hasan",
    "direct_url": "promedica-physicians-neurology-hasan",
    "zip_code": "43616"
  },
  {
    "name": "ProMedica Physicians Neurology - Szymanski",
    "direct_url": "promedica-physicians-neurology-szymanski",
    "zip_code": "43616"
  },
  {
    "name": "ProMedica Physicians Neurology - MaumeeHasan",
    "direct_url": "promedica-physicians-neurology-maumee-hasan",
    "zip_code": "43537"
  },
  {
    "name": "ProMedica Physicians Neurology - MonroeHasan",
    "direct_url": "promedica-physicians-neurology-monroe-hasan",
    "zip_code": "48162"
  },
  {
    "name": "ProMedica Physicians Neurology - MaumeeSzymanski",
    "direct_url": "promedica-physicians-neurology-maumee-szymanski",
    "zip_code": "43537"
  },
  {
    "name": "ProMedica Physicians Neurology - MonroeSzymanski",
    "direct_url": "promedica-physicians-neurology-monroe-szymanski",
    "zip_code": "48162"
  },
  {
    "name": "ProMedica Physicians Ear, Nose and Throat - Oregon",
    "direct_url": "promedica-physicians-ear-nose-and-throat-oregon",
    "zip_code": "43616"
  },
  {
    "name": "ProMedica Physicians Vision Associates - Toledo",
    "direct_url": "promedica-physicians-vision-associates-toledo",
    "zip_code": "43617"
  },
  {
    "name": "ProMedica Physicians Vision Associates - Bowling Green",
    "direct_url": "promedica-physicians-vision-associates-bowling-green",
    "zip_code": "43402"
  },
  {
    "name": "ProMedica Physicians Pediatric Pulmonary and Sleep Medicine and Cystic Fibrosis - Fremont",
    "direct_url": "promedica-physicians-pediatric-pulmonary-and-sleep-medicine-and-cystic-fibrosis-fremont",
    "zip_code": "43420"
  },
  {
    "name": "ProMedica Physicians Weight Loss Surgery - Tecumseh",
    "direct_url": "promedica-physicians-weight-loss-surgery-tecumseh",
    "zip_code": "49286"
  },
  {
    "name": "ProMedica Physicians Neurology - Adrian",
    "direct_url": "promedica-physicians-neurology-adrian",
    "zip_code": "49221"
  },
  {
    "name": "ProMedica Physicians ENT",
    "direct_url": "promedica-physicians-ent",
    "zip_code": null
  },
  {
    "name": "ProMedica Pediatric Clinic",
    "direct_url": "promedica-pediatric-clinic-1",
    "zip_code": "43606"
  },
  {
    "name": "ProMedica Pain Management - Monroe",
    "direct_url": "promedica-pain-management-monroe",
    "zip_code": "48162"
  },
  {
    "name": "ProMedica Physicians Cardiology - Toledo Hospital",
    "direct_url": "promedica-physicians-cardiology-toledo-hospital-1",
    "zip_code": "43606"
  },
  {
    "name": "ProMedica Physicians Digestive Healthcare - Maumee",
    "direct_url": "promedica-physicians-digestive-healthcare-maumee",
    "zip_code": "43537"
  },
  {
    "name": "ProMedica Palliative Care Clinic",
    "direct_url": "promedica-palliative-care-clinic",
    "zip_code": "43560"
  },
  {
    "name": "ProMedica Physicians Monroe Pediatrics",
    "direct_url": "promedica-physicians-monroe-pediatrics",
    "zip_code": "48162"
  },
  {
    "name": "ProMedica Physicians Toledo Orthopaedic and Spine Surgeons - Hand Clinic",
    "direct_url": "promedica-physicians-toledo-orthopaedic-and-spine-surgeons-hand-clinic",
    "zip_code": "43615"
  },
  {
    "name": "ProMedica Physicians Retina",
    "direct_url": "promedica-physicians-retina",
    "zip_code": "43615"
  },
  {
    "name": "ProMedica Genito-Urinary Surgeons - Adrian",
    "direct_url": "promedica-genito-urinary-surgeons-adrian",
    "zip_code": "49221"
  },
  {
    "name": "ProMedica Genito-Urinary Surgeons - Oregon",
    "direct_url": "promedica-genito-urinary-surgeons-oregon",
    "zip_code": "43616"
  },
  {
    "name": "ProMedica Physicians Pediatric Urology",
    "direct_url": "promedica-physicians-pediatric-urology",
    "zip_code": "43606"
  },
  {
    "name": "ProMedica Physicians Internal Medicine I Family Medicine",
    "direct_url": "promedica-physicians-internal-medicine-i-family-medicine",
    "zip_code": "43410"
  }
]
