[
  {
    "name": "ProMedica Memorial Hospital - Womens Diagnostic Center",
    "direct_url": "promedica-memorial-hospital-women-s-diagnostic-center",
    "zip_code": "43420"
  },
  {
    "name": "Coping Center - Defiance Regional Hospital",
    "direct_url": "coping-center-defiance-regional-hospital",
    "zip_code": "43512"
  },
  {
    "name": "ProMedica Russell J. Ebeid Childrens Hospital Finnegan Family Autism Center",
    "direct_url": "promedica-russell-j-ebeid-children-s-hospital-finnegan-family-autism-center",
    "zip_code": "43606"
  },
  {
    "name": "ProMedica 360Health - Fremont",
    "direct_url": "promedica-360health-fremont",
    "zip_code": "43420"
  },
  {
    "name": "Mary Ellen Falzone Diabetes Center",
    "direct_url": "mary-ellen-falzone-diabetes-center",
    "zip_code": "43606"
  },
  {
    "name": "ProMedica at Home",
    "direct_url": "promedica-at-home",
    "zip_code": "43560"
  },
  {
    "name": "ProMedica Bay Park Hospital - Laboratory",
    "direct_url": "promedica-bay-park-hospital-laboratory",
    "zip_code": "43616"
  },
  {
    "name": "ProMedica Bay Park Hospital - Radiology",
    "direct_url": "promedica-bay-park-hospital-radiology",
    "zip_code": "43616"
  },
  {
    "name": "ProMedica Bay Park Hospital - Womens Center",
    "direct_url": "promedica-bay-park-hospital-women-s-center",
    "zip_code": "43616"
  },
  {
    "name": "ProMedica Radiology",
    "direct_url": "promedica-radiology-2",
    "zip_code": "49221"
  },
  {
    "name": "ProMedica Breast Care",
    "direct_url": "promedica-breast-care",
    "zip_code": "43606"
  },
  {
    "name": "ProMedica Defiance Regional Hospital Cardiac Rehab",
    "direct_url": "promedica-defiance-regional-hospital-cardiac-rehab",
    "zip_code": "43512"
  },
  {
    "name": "ProMedica Fostoria Community Hospital Cardiac Rehab",
    "direct_url": "promedica-fostoria-community-hospital-cardiac-rehab",
    "zip_code": "44830"
  },
  {
    "name": "ProMedica Memorial Hospital Cardiac Rehab - Fremont",
    "direct_url": "promedica-memorial-hospital-cardiac-rehab-fremont",
    "zip_code": "43420"
  },
  {
    "name": "ProMedica Flower Hospital Cardiac Rehab - Sylvania",
    "direct_url": "promedica-flower-hospital-cardiac-rehab-sylvania",
    "zip_code": "43560"
  },
  {
    "name": "ProMedica Defiance Regional Hospital - Laboratory",
    "direct_url": "promedica-defiance-regional-hospital-laboratory",
    "zip_code": "43512"
  },
  {
    "name": "ProMedica Flower Hospital - Laboratory",
    "direct_url": "promedica-flower-hospital-laboratory",
    "zip_code": "43560"
  },
  {
    "name": "Nu el - A Lifetime Boutique",
    "direct_url": "nu-el-a-lifetime-boutique",
    "zip_code": "43512"
  },
  {
    "name": "ProMedica Heart Failure Clinic - Toledo",
    "direct_url": "promedica-heart-failure-clinic-toledo",
    "zip_code": "43606"
  },
  {
    "name": "Jobst Medication Therapy Management - Fostoria",
    "direct_url": "jobst-medication-therapy-management-fostoria",
    "zip_code": "44830"
  },
  {
    "name": "Jobst Medication Therapy Management - Toledo",
    "direct_url": "jobst-medication-therapy-management-toledo",
    "zip_code": "43606"
  },
  {
    "name": "ProMedica Laboratories - Blissfield",
    "direct_url": "promedica-laboratories-blissfield",
    "zip_code": "49228"
  },
  {
    "name": "ProMedica Laboratories - Onsted",
    "direct_url": "promedica-laboratories-onsted",
    "zip_code": "49265"
  },
  {
    "name": "ProMedica Laboratories - Adrian",
    "direct_url": "promedica-laboratories-adrian",
    "zip_code": "49221"
  },
  {
    "name": "ProMedica Laboratories - Lambertville",
    "direct_url": "promedica-laboratories-lambertville",
    "zip_code": "48144"
  },
  {
    "name": "ProMedica Laboratories - Arrowhead",
    "direct_url": "promedica-laboratories-arrowhead",
    "zip_code": "43537"
  },
  {
    "name": "ProMedica Laboratories - Center for Health Services",
    "direct_url": "promedica-laboratories-center-for-health-services",
    "zip_code": "43606"
  },
  {
    "name": "ProMedica Laboratories - McCord Road",
    "direct_url": "promedica-laboratories-mccord-road",
    "zip_code": "43615"
  },
  {
    "name": "ProMedica Laboratories - Tiffin",
    "direct_url": "promedica-laboratories-tiffin",
    "zip_code": "44883"
  },
  {
    "name": "ProMedica Laboratories - Levis Commons",
    "direct_url": "promedica-laboratories-levis-commons",
    "zip_code": "43551"
  },
  {
    "name": "ProMedica Laboratories - Point Place",
    "direct_url": "promedica-laboratories-point-place",
    "zip_code": "43611"
  },
  {
    "name": "ProMedica Laboratories - Oregon",
    "direct_url": "promedica-laboratories-oregon",
    "zip_code": "43616"
  },
  {
    "name": "ProMedica Laboratories - Swanton",
    "direct_url": "promedica-laboratories-swanton",
    "zip_code": "43558"
  },
  {
    "name": "ProMedica Laboratories - Rossford",
    "direct_url": "promedica-laboratories-rossford",
    "zip_code": "43460"
  },
  {
    "name": "ProMedica Laboratories - Hudson",
    "direct_url": "promedica-laboratories-hudson",
    "zip_code": "49247"
  },
  {
    "name": "ProMedica Laboratories - Wolf Creek",
    "direct_url": "promedica-laboratories-wolf-creek",
    "zip_code": "49221"
  },
  {
    "name": "ProMedica Memorial Hospital - Laboratory",
    "direct_url": "promedica-memorial-hospital-laboratory",
    "zip_code": "43420"
  },
  {
    "name": "ProMedica Memorial Hospital - Radiology",
    "direct_url": "promedica-memorial-hospital-radiology",
    "zip_code": "43420"
  },
  {
    "name": "ProMedica 360Health - Toledo",
    "direct_url": "promedica-360health-toledo",
    "zip_code": "43606"
  },
  {
    "name": "ProMedica Radiology",
    "direct_url": "promedica-radiology-5",
    "zip_code": "43537"
  },
  {
    "name": "ProMedica Radiology",
    "direct_url": "promedica-radiology-6",
    "zip_code": "43606"
  },
  {
    "name": "ProMedica Radiology - Levis Commons",
    "direct_url": "promedica-radiology-levis-commons",
    "zip_code": "43551"
  },
  {
    "name": "ProMedica Sleep Center - Defiance",
    "direct_url": "promedica-sleep-center-defiance",
    "zip_code": "43512"
  },
  {
    "name": "ProMedica Sleep Center - Fostoria",
    "direct_url": "promedica-sleep-center-fostoria",
    "zip_code": "44830"
  },
  {
    "name": "ProMedica Sleep Center - Fremont",
    "direct_url": "promedica-sleep-center-fremont",
    "zip_code": "43420"
  },
  {
    "name": "ProMedica Sleep Center - Oregon",
    "direct_url": "promedica-sleep-center-oregon",
    "zip_code": "43616"
  },
  {
    "name": "ProMedica Sleep Center - Sylvania",
    "direct_url": "promedica-sleep-center-sylvania",
    "zip_code": "43560"
  },
  {
    "name": "ProMedica Structural Heart Clinic",
    "direct_url": "promedica-structural-heart-clinic",
    "zip_code": "43606"
  },
  {
    "name": "ProMedica Toledo & Russell J. Ebeid Childrens Hospitals - Laboratory",
    "direct_url": "promedica-toledo-russell-j-ebeid-children-s-hospital-s-laboratory",
    "zip_code": "43606"
  },
  {
    "name": "ProMedica Toledo Hospital - Radiology",
    "direct_url": "promedica-toledo-hospital-radiology",
    "zip_code": "43606"
  },
  {
    "name": "ProMedica Total Rehab - Adrian",
    "direct_url": "promedica-total-rehab-adrian",
    "zip_code": "49221"
  },
  {
    "name": "ProMedica Total Rehab - Dundee",
    "direct_url": "promedica-total-rehab-dundee",
    "zip_code": "48131"
  },
  {
    "name": "ProMedica Total Rehab - Temperance",
    "direct_url": "promedica-total-rehab-temperance",
    "zip_code": "48182"
  },
  {
    "name": "ProMedica Total Rehab - Fostoria",
    "direct_url": "promedica-total-rehab-fostoria",
    "zip_code": "44830"
  },
  {
    "name": "ProMedica Total Rehab - Onsted",
    "direct_url": "promedica-total-rehab-onsted",
    "zip_code": "49265"
  },
  {
    "name": "ProMedica Total Rehab - Sylvania",
    "direct_url": "promedica-total-rehab-sylvania",
    "zip_code": "43560"
  },
  {
    "name": "ProMedica Total Rehab - Maumee",
    "direct_url": "promedica-total-rehab-maumee",
    "zip_code": "43537"
  },
  {
    "name": "ProMedica Total Rehab - Oregon",
    "direct_url": "promedica-total-rehab-oregon",
    "zip_code": "43616"
  },
  {
    "name": "ProMedica Total Rehab - Toledo",
    "direct_url": "promedica-total-rehab-toledo",
    "zip_code": "43606"
  },
  {
    "name": "ProMedica Total Rehab - Defiance",
    "direct_url": "promedica-total-rehab-defiance",
    "zip_code": "43512"
  },
  {
    "name": "ProMedica Total Rehab - Gibsonburg",
    "direct_url": "promedica-total-rehab-gibsonburg",
    "zip_code": "43430"
  },
  {
    "name": "ProMedica Total Rehab - Clyde",
    "direct_url": "promedica-total-rehab-clyde",
    "zip_code": "43410"
  },
  {
    "name": "ProMedica Total Rehab - Fremont",
    "direct_url": "promedica-total-rehab-fremont",
    "zip_code": "43420"
  },
  {
    "name": "ProMedica Total Rehab - Levis Commons",
    "direct_url": "promedica-total-rehab-levis-commons",
    "zip_code": "43551"
  },
  {
    "name": "ProMedica Total Rehab - Holland",
    "direct_url": "promedica-total-rehab-holland",
    "zip_code": "43528"
  },
  {
    "name": "ProMedica Total Rehab - Bowling Green",
    "direct_url": "promedica-total-rehab-bowling-green",
    "zip_code": "43402"
  },
  {
    "name": "Jobst Vascular Institute Vein Care",
    "direct_url": "jobst-vascular-institute-vein-care",
    "zip_code": "43560"
  },
  {
    "name": "ProMedica Wildwood Orthopaedic and Spine Hospital - Radiology",
    "direct_url": "promedica-wildwood-orthopaedic-and-spine-hospital-radiology",
    "zip_code": "43615"
  },
  {
    "name": "ProMedica Specialty Pharmacy ",
    "direct_url": "promedica-specialty-pharmacy",
    "zip_code": "43606"
  },
  {
    "name": "ProMedica Bay Park Hospital - Surgery Center",
    "direct_url": "promedica-bay-park-hospital-surgery-center",
    "zip_code": "43616"
  },
  {
    "name": "ProMedica Defiance Regional Hospital - Surgery Center",
    "direct_url": "promedica-defiance-regional-hospital-surgery-center",
    "zip_code": "43512"
  },
  {
    "name": "ProMedica Flower Hospital - Surgery Center",
    "direct_url": "promedica-flower-hospital-surgery-center",
    "zip_code": "43560"
  },
  {
    "name": "ProMedica Fostoria Community Hospital - Surgery Center",
    "direct_url": "promedica-fostoria-community-hospital-surgery-center",
    "zip_code": "44830"
  },
  {
    "name": "ProMedica Memorial Hospital - Surgery Center",
    "direct_url": "promedica-memorial-hospital-surgery-center",
    "zip_code": "43420"
  },
  {
    "name": "Cystic Fibrosis Center of Northwest Ohio",
    "direct_url": "cystic-fibrosis-center-of-northwest-ohio",
    "zip_code": "43606"
  },
  {
    "name": "ProMedica Toledo Hospital - Surgery Center",
    "direct_url": "promedica-toledo-hospital-surgery-center",
    "zip_code": "43606"
  },
  {
    "name": "ProMedica Russell J. Ebeid Childrens Hospital - Surgery Center",
    "direct_url": "promedica-russell-j-ebeid-children-s-hospital-surgery-center",
    "zip_code": "43606"
  },
  {
    "name": "ProMedica Hickman Cancer Center - Sylvania",
    "direct_url": "promedica-hickman-cancer-center-sylvania",
    "zip_code": "43560"
  },
  {
    "name": "ProMedica Hickman Cancer Center - Adrian",
    "direct_url": "promedica-hickman-cancer-center-adrian",
    "zip_code": "49221"
  },
  {
    "name": "ProMedica Debbie Brass Childrens Cancer Center",
    "direct_url": "promedica-debbie-brass-children-s-cancer-center",
    "zip_code": "43606"
  },
  {
    "name": "ProMedica Monroe Cancer Center",
    "direct_url": "promedica-monroe-cancer-center",
    "zip_code": "48162"
  },
  {
    "name": "ProMedica Heart Failure Clinic - Oregon",
    "direct_url": "promedica-heart-failure-clinic-oregon",
    "zip_code": "43616"
  },
  {
    "name": "ProMedica Flower Hospital - Radiology",
    "direct_url": "promedica-flower-hospital-radiology",
    "zip_code": "43560"
  },
  {
    "name": "ProMedica Endoscopy Center",
    "direct_url": "promedica-endoscopy-center",
    "zip_code": "43560"
  },
  {
    "name": "ProMedica Defiance Regional Hospital - Radiology",
    "direct_url": "promedica-defiance-regional-hospital-radiology",
    "zip_code": "43512"
  },
  {
    "name": "ProMedica Fostoria Community Hospital - Radiology",
    "direct_url": "promedica-fostoria-community-hospital-radiology",
    "zip_code": "44830"
  },
  {
    "name": "ProMedica Medical Center",
    "direct_url": "promedica-medical-center",
    "zip_code": "44830"
  },
  {
    "name": "ProMedica Total Rehab Sports Medicine",
    "direct_url": "promedica-total-rehab-sports-medicine",
    "zip_code": null
  },
  {
    "name": "ProMedica 360Health - Monroe",
    "direct_url": "promedica-360health-monroe",
    "zip_code": "48162"
  },
  {
    "name": "Kaitlyns Cottage",
    "direct_url": "kaitlyn-s-cottage",
    "zip_code": "43512"
  },
  {
    "name": "Jobst Medication Therapy Management - Fremont",
    "direct_url": "jobst-medication-therapy-management-fremont",
    "zip_code": "43420"
  },
  {
    "name": "ProMedica Stroke Network",
    "direct_url": "promedica-stroke-network",
    "zip_code": null
  },
  {
    "name": "ProMedica Urgent Care - Oregon",
    "direct_url": "promedica-urgent-care-oregon",
    "zip_code": "43616"
  },
  {
    "name": "ProMedica Urgent Care - Perrysburg",
    "direct_url": "promedica-urgent-care-perrysburg",
    "zip_code": "43551"
  },
  {
    "name": "ProMedica Dorothy L. Kern Cancer Center",
    "direct_url": "promedica-dorothy-l-kern-cancer-center",
    "zip_code": "43420"
  },
  {
    "name": "ProMedica Total Rehab - Monroe",
    "direct_url": "promedica-total-rehab-monroe-1",
    "zip_code": "48161"
  },
  {
    "name": "ProMedica Total Rehab - Monroe Regional Hospital",
    "direct_url": "promedica-total-rehab-monroe-regional-hospital",
    "zip_code": "48162"
  },
  {
    "name": "Cardiac and Pulmonary Rehab - Fostoria ",
    "direct_url": "cardiac-and-pulmonary-rehab-fostoria",
    "zip_code": "44830"
  },
  {
    "name": "Market on the Green",
    "direct_url": "market-on-the-green",
    "zip_code": "43604"
  },
  {
    "name": "Jobst Vascular Institute",
    "direct_url": "jobst-vascular-institute",
    "zip_code": "43606"
  },
  {
    "name": "ProMedica Monroe Regional Hospital - Radiology",
    "direct_url": "promedica-monroe-regional-hospital-radiology",
    "zip_code": "48162"
  },
  {
    "name": "Jobst Medication Therapy Management - Oregon",
    "direct_url": "jobst-medication-therapy-management-oregon",
    "zip_code": "43616"
  },
  {
    "name": "ProMedica Imaging",
    "direct_url": "promedica-imaging-1",
    "zip_code": "43560"
  },
  {
    "name": "ProMedica Laboratories - Health and Wellness Center",
    "direct_url": "promedica-laboratories-health-and-wellness-center",
    "zip_code": "43560"
  },
  {
    "name": "ProMedica Optical",
    "direct_url": "promedica-optical",
    "zip_code": "43560"
  },
  {
    "name": "ProMedica Womens Imaging Center",
    "direct_url": "promedica-women-s-imaging-center",
    "zip_code": "43560"
  },
  {
    "name": "ProMedica Food Clinic - Sylvania",
    "direct_url": "promedica-food-clinic-sylvania",
    "zip_code": "43560"
  },
  {
    "name": "ProMedica Pulmonary Clinic - Monroe",
    "direct_url": "promedica-pulmonary-clinic-monroe",
    "zip_code": "48162"
  },
  {
    "name": "ProMedica Urgent Care - Holland",
    "direct_url": "promedica-urgent-care-holland",
    "zip_code": "43528"
  },
  {
    "name": "ProMedica Urgent Care - Toledo (Central)",
    "direct_url": "promedica-urgent-care-toledo-central",
    "zip_code": "43617"
  },
  {
    "name": "ProMedica Laboratories- Dundee Westside Medical Building",
    "direct_url": "promedica-laboratories-dundee-westside-medical-building",
    "zip_code": "48131"
  },
  {
    "name": "ProMedica Laboratories- Ahadi",
    "direct_url": "promedica-laboratories-ahadi",
    "zip_code": "48162"
  },
  {
    "name": "ProMedica Laboratories- Kabir",
    "direct_url": "promedica-laboratories-kabir",
    "zip_code": "48161"
  },
  {
    "name": "ProMedica Laboratories- Monroe Professional Office Building",
    "direct_url": "promedica-laboratories-monroe-professional-office-building",
    "zip_code": "48162"
  },
  {
    "name": "ProMedica Laboratories- Monroe Diagnostic Center",
    "direct_url": "promedica-laboratories-monroe-diagnostic-center",
    "zip_code": "48162"
  },
  {
    "name": "ProMedica Laboratories- Delisle Center",
    "direct_url": "promedica-laboratories-delisle-center",
    "zip_code": "48162"
  },
  {
    "name": "ProMedica Laboratories- Newport",
    "direct_url": "promedica-laboratories-newport",
    "zip_code": "48166"
  },
  {
    "name": "ProMedica Laboratories - Fostoria",
    "direct_url": "promedica-laboratories-fostoria",
    "zip_code": "44830"
  },
  {
    "name": "ProMedica Express Care - Defiance",
    "direct_url": "promedica-express-care-defiance",
    "zip_code": "43512"
  },
  {
    "name": "ProMedica Total Rehab- Defiance",
    "direct_url": "promedica-total-rehab-defiance-1",
    "zip_code": "43512"
  },
  {
    "name": "ProMedica Total Rehab Pediatrics",
    "direct_url": "promedica-total-rehab-pediatrics",
    "zip_code": "43623"
  },
  {
    "name": "ProMedica Pulmonary  COPD Education Clinic - Toledo",
    "direct_url": "promedica-pulmonary-copd-education-clinic-toledo",
    "zip_code": "43606"
  },
  {
    "name": "ProMedica Defiance Regional Hospital - Emergency Center",
    "direct_url": "promedica-defiance-regional-hospital-emergency-center",
    "zip_code": "43512"
  },
  {
    "name": "ProMedica Bay Park Hospital - Emergency Center",
    "direct_url": "promedica-bay-park-hospital-emergency-center",
    "zip_code": "43616"
  },
  {
    "name": "ProMedica Flower Hospital - Emergency Center",
    "direct_url": "promedica-flower-hospital-emergency-center",
    "zip_code": "43560"
  },
  {
    "name": "ProMedica Fostoria Community Hospital - Emergency Center",
    "direct_url": "promedica-fostoria-community-hospital-emergency-center",
    "zip_code": "44830"
  },
  {
    "name": "ProMedica Memorial Hospital - Emergency Center",
    "direct_url": "promedica-memorial-hospital-emergency-center",
    "zip_code": "43420"
  },
  {
    "name": "ProMedica Monroe Regional Hospital - Emergency Center",
    "direct_url": "promedica-monroe-regional-hospital-emergency-center",
    "zip_code": "48162"
  },
  {
    "name": "ProMedica Russell J. Ebeid Childrens Hospital - Emergency Center",
    "direct_url": "promedica-russell-j-ebeid-children-s-hospital-emergency-center",
    "zip_code": "43606"
  },
  {
    "name": "ProMedica Toledo Hospital - Emergency Center",
    "direct_url": "promedica-toledo-hospital-emergency-center",
    "zip_code": "43606"
  },
  {
    "name": "ProMedica Monroe Regional Hospital - Surgery Center",
    "direct_url": "promedica-monroe-regional-hospital-surgery-center",
    "zip_code": null
  },
  {
    "name": "ProMedica Monroe Regional Hospital Family Medicine Residency",
    "direct_url": "promedica-monroe-regional-hospital-family-medicine-residency",
    "zip_code": "48162"
  },
  {
    "name": "ProMedica Bay Park Hospital Cardiac Rehab - Oregon",
    "direct_url": "promedica-bay-park-hospital-cardiac-rehab-oregon",
    "zip_code": "43616"
  },
  {
    "name": "ProMedica Monroe Regional Hospital Cardiac Rehab",
    "direct_url": "promedica-monroe-regional-hospital-cardiac-rehab",
    "zip_code": "48162"
  },
  {
    "name": "Jobst Medication Therapy Management - Defiance",
    "direct_url": "jobst-medication-therapy-management-defiance",
    "zip_code": "43512"
  },
  {
    "name": "Jobst Medication Therapy Management - Monroe",
    "direct_url": "jobst-medication-therapy-management-monroe",
    "zip_code": "48162"
  },
  {
    "name": "ProMedica Pulmonary Clinic - Sylvania",
    "direct_url": "promedica-pulmonary-clinic-sylvania",
    "zip_code": "43260"
  },
  {
    "name": "ProMedica Pulmonary Clinic - Oregon",
    "direct_url": "promedica-pulmonary-clinic-oregon",
    "zip_code": "43616"
  },
  {
    "name": "Jobst Medication Therapy Management - Sylvania",
    "direct_url": "jobst-medication-therapy-management-sylvania",
    "zip_code": "43560"
  },
  {
    "name": "ProMedica Laboratories - Falzone Diabetes Center",
    "direct_url": "promedica-laboratories-falzone-diabetes-center",
    "zip_code": "43606"
  },
  {
    "name": "ProMedica Fostoria Community Hospital Outpatient Pharmacy",
    "direct_url": "promedica-fostoria-community-hospital-outpatient-pharmacy",
    "zip_code": "44830"
  },
  {
    "name": "ProMedica Adherence Pharmacy",
    "direct_url": "promedica-adherence-pharmacy",
    "zip_code": "43606"
  },
  {
    "name": "ProMedica Laboratories - Fremont",
    "direct_url": "promedica-laboratories-fremont",
    "zip_code": "43420"
  },
  {
    "name": "ProMedica Parkway Surgery Center",
    "direct_url": "promedica-parkway-surgery-center",
    "zip_code": "43606"
  },
  {
    "name": "ProMedica Heart Failure Clinic - Fremont",
    "direct_url": "promedica-heart-failure-clinic-fremont",
    "zip_code": "43420"
  },
  {
    "name": "ProMedica Audiology",
    "direct_url": "promedica-audiology-1",
    "zip_code": "43560"
  },
  {
    "name": "ProMedica Ebeid Institute",
    "direct_url": "promedica-ebeid-institute",
    "zip_code": "43604"
  },
  {
    "name": "ProMedica Bay Park Hospital - Cancer Center",
    "direct_url": "promedica-bay-park-hospital-cancer-center",
    "zip_code": "43616"
  },
  {
    "name": "ProMedica Toledo Hospital - Cancer Care",
    "direct_url": "promedica-toledo-hospital-cancer-care",
    "zip_code": "43606"
  },
  {
    "name": "ProMedica Defiance Regional Hospital - Cancer Center",
    "direct_url": "promedica-defiance-regional-hospital-cancer-center",
    "zip_code": "43512"
  },
  {
    "name": "ProMedica Fostoria Community Hospital - Cancer Care",
    "direct_url": "promedica-fostoria-community-hospital-cancer-care",
    "zip_code": "44830"
  },
  {
    "name": "ProMedica Laboratories - Tecumseh",
    "direct_url": "promedica-laboratories-tecumseh",
    "zip_code": "49286"
  },
  {
    "name": "ProMedica Bay Park Hospital - Orthopaedics",
    "direct_url": "promedica-bay-park-hospital-orthopaedics",
    "zip_code": null
  },
  {
    "name": "ProMedica Defiance Regional Hospital - Orthopaedics",
    "direct_url": "promedica-defiance-regional-hospital-orthopaedics",
    "zip_code": null
  },
  {
    "name": "ProMedica Fostoria Community Hospital - Orthopaedics",
    "direct_url": "promedica-fostoria-community-hospital-orthopaedics",
    "zip_code": null
  },
  {
    "name": "ProMedica Memorial Hospital - Orthopaedics",
    "direct_url": "promedica-memorial-hospital-orthopaedics",
    "zip_code": null
  },
  {
    "name": "ProMedica Russell J. Ebeids Childrens Hospital - Orthopaedics",
    "direct_url": "promedica-russell-j-ebeids-childrens-hospital-orthopaedics",
    "zip_code": null
  },
  {
    "name": "ProMedica Flower Hospital - Orthopaedics",
    "direct_url": "promedica-flower-hospital-orthopaedics",
    "zip_code": null
  },
  {
    "name": "ProMedica Monroe Regional Hospital - Orthopaedics",
    "direct_url": "promedica-monroe-regional-hospital-orthopaedics",
    "zip_code": null
  },
  {
    "name": "ProMedica Urgent Care - Toledo (Secor)",
    "direct_url": "promedica-urgent-care-toledo-secor",
    "zip_code": "43606"
  },
  {
    "name": "ProMedica Pulmonary Clinic - Defiance",
    "direct_url": "promedica-pulmonary-clinic-defiance",
    "zip_code": "43512"
  },
  {
    "name": "ProMedica Pulmonary Clinic - Fostoria",
    "direct_url": "promedica-pulmonary-clinic-fostoria",
    "zip_code": "44830"
  },
  {
    "name": "ProMedica Pulmonary Clinic - Fremont",
    "direct_url": "promedica-pulmonary-clinic-fremont",
    "zip_code": "43420"
  },
  {
    "name": "ProMedica Food Clinic - Toledo",
    "direct_url": "promedica-food-clinic-toledo",
    "zip_code": "43606"
  },
  {
    "name": "ProMedica Monroe Regional Hospital - Womens Health Center",
    "direct_url": "promedica-monroe-regional-hospital-women-s-health-center",
    "zip_code": "48162"
  },
  {
    "name": "ProMedica Pulmonary Rehab - Oregon",
    "direct_url": "promedica-pulmonary-rehab-oregon",
    "zip_code": "43616"
  },
  {
    "name": "ProMedica Pulmonary Rehab - Defiance",
    "direct_url": "promedica-pulmonary-rehab-defiance",
    "zip_code": "43512"
  },
  {
    "name": "ProMedica Pulmonary Rehab - Sylvania",
    "direct_url": "promedica-pulmonary-rehab-sylvania",
    "zip_code": "43560"
  },
  {
    "name": "ProMedica Pulmonary Rehab - Fostoria",
    "direct_url": "promedica-pulmonary-rehab-fostoria",
    "zip_code": "44830"
  },
  {
    "name": "ProMedica Pulmonary Rehab - Fremont",
    "direct_url": "promedica-pulmonary-rehab-fremont",
    "zip_code": "43420"
  },
  {
    "name": "ProMedica Pulmonary Rehab - Monroe",
    "direct_url": "promedica-pulmonary-rehab-monroe",
    "zip_code": "48162"
  },
  {
    "name": "ProMedica Device Clinic",
    "direct_url": "promedica-device-clinic",
    "zip_code": "43615"
  },
  {
    "name": "ProMedica Heart Rhythm Center",
    "direct_url": "promedica-heart-rhythm-center",
    "zip_code": "43606"
  },
  {
    "name": "ProMedica Learning and Education Building",
    "direct_url": "promedica-learning-and-education-building",
    "zip_code": "43537"
  },
  {
    "name": "Neurosciences Center",
    "direct_url": "neurosciences-center",
    "zip_code": "43606"
  },
  {
    "name": "ProMedica Neurophysiology",
    "direct_url": "promedica-neurophysiology",
    "zip_code": "43606"
  },
  {
    "name": "ProMedica Total Rehab - Neurology",
    "direct_url": "promedica-total-rehab-neurology",
    "zip_code": "43606"
  },
  {
    "name": "ProMedica Audiology",
    "direct_url": "promedica-audiology",
    "zip_code": "43606"
  },
  {
    "name": "ProMedica Monroe Regional Hospital - Cancer and Infusion Services",
    "direct_url": "promedica-monroe-regional-hospital-cancer-and-infusion-services",
    "zip_code": "48162"
  },
  {
    "name": "ProMedica 360Health - Greenville",
    "direct_url": "promedica-360health-greenville",
    "zip_code": "45331"
  },
  {
    "name": "ProMedica Sleep Center - Monroe",
    "direct_url": "promedica-sleep-center-monroe",
    "zip_code": "48162"
  },
  {
    "name": "ProMedica Spine Care",
    "direct_url": "promedica-spine-care",
    "zip_code": "43606"
  },
  {
    "name": "ProMedica Integrated Medical Solutions",
    "direct_url": "promedica-integrated-medical-solutions",
    "zip_code": "43560"
  },
  {
    "name": "ProMedica Maumee Cancer Center",
    "direct_url": "promedica-maumee-cancer-center",
    "zip_code": "43537"
  },
  {
    "name": "ProMedica Coldwater Regional Hospital - Emergency Center",
    "direct_url": "promedica-coldwater-regional-hospital-emergency-center",
    "zip_code": "49036"
  },
  {
    "name": "ProMedica Fostoria Community Hospital - Medical Office Building ",
    "direct_url": "promedica-fostoria-community-hospital-medical-office-building",
    "zip_code": "44830"
  },
  {
    "name": "ProMedica Coldwater Regional Hospital - Internal Medicine",
    "direct_url": "promedica-coldwater-regional-hospital-internal-medicine",
    "zip_code": "49036"
  },
  {
    "name": "ProMedica Laboratories - Coldwater",
    "direct_url": "promedica-laboratories-coldwater",
    "zip_code": "49036"
  },
  {
    "name": "ProMedica Urgent Care for Kids",
    "direct_url": "promedica-urgent-care-for-kids",
    "zip_code": "43551"
  },
  {
    "name": "ProMedica Natural Wellness Shop",
    "direct_url": "promedica-natural-wellness-shop",
    "zip_code": "43560"
  },
  {
    "name": "ProMedica Comprehensive Adult Sickle Cell Clinic",
    "direct_url": "promedica-comprehensive-adult-sickle-cell-clinic",
    "zip_code": "43606"
  },
  {
    "name": "ProMedica Bay Park Hospital - Labor and Delivery",
    "direct_url": "promedica-bay-park-hospital-labor-and-delivery",
    "zip_code": "43616"
  },
  {
    "name": "ProMedica Defiance Regional Hospital - Labor and Delivery",
    "direct_url": "promedica-defiance-regional-hospital-labor-and-delivery",
    "zip_code": "43512"
  },
  {
    "name": "ProMedica Memorial Hospital - Labor and Delivery",
    "direct_url": "promedica-memorial-hospital-labor-and-delivery",
    "zip_code": "43420"
  },
  {
    "name": "ProMedica Monroe Regional Hospital - Labor and Delivery",
    "direct_url": "promedica-monroe-regional-hospital-labor-and-delivery",
    "zip_code": "48162"
  },
  {
    "name": "ProMedica Toledo Hospital - Labor and Delivery",
    "direct_url": "promedica-toledo-hospital-labor-and-delivery",
    "zip_code": "43606"
  },
  {
    "name": "My Baby & Me Boutique",
    "direct_url": "my-baby-me-boutique",
    "zip_code": "43606"
  },
  {
    "name": "ProMedica Coldwater Regional Hospital - Labor and Delivery",
    "direct_url": "promedica-coldwater-regional-hospital-labor-and-delivery",
    "zip_code": "49036"
  },
  {
    "name": "ProMedica Coldwater Regional Hospital - Womens Health Center",
    "direct_url": "promedica-coldwater-regional-hospital-women-s-health-center",
    "zip_code": "49036"
  },
  {
    "name": "ProMedica Total Rehab - Coldwater",
    "direct_url": "promedica-total-rehab-coldwater",
    "zip_code": "49036"
  },
  {
    "name": "ProMedica Coldwater Cancer Center",
    "direct_url": "promedica-coldwater-cancer-center",
    "zip_code": "49036"
  },
  {
    "name": "Eidi Family Rehabilitation Center",
    "direct_url": "eidi-family-rehabilitation-center",
    "zip_code": "43560"
  },
  {
    "name": "ProMedica Farms",
    "direct_url": "promedica-farms",
    "zip_code": "49286"
  },
  {
    "name": "ProMedica Coldwater Regional Hospital - Cardiac Rehab",
    "direct_url": "promedica-coldwater-regional-hospital-cardiac-rehab",
    "zip_code": "49036"
  },
  {
    "name": "ProMedica Coldwater Regional Hospital Pain Management",
    "direct_url": "promedica-coldwater-regional-hospital-pain-management",
    "zip_code": "49036"
  },
  {
    "name": "ProMedica Heart Failure Clinic - Monroe",
    "direct_url": "promedica-heart-failure-clinic-monroe",
    "zip_code": "48162"
  },
  {
    "name": "ProMedica Coldwater Regional Hospital - Orthopaedic Surgery",
    "direct_url": "promedica-coldwater-regional-hospital-orthopaedic-surgery",
    "zip_code": "49036"
  },
  {
    "name": "ProMedica Coldwater Regional Hospital - Foot and Ankle",
    "direct_url": "promedica-coldwater-regional-hospital-foot-and-ankle",
    "zip_code": "49036"
  },
  {
    "name": "ProMedica Coldwater Regional Hospital - Urology",
    "direct_url": "promedica-coldwater-regional-hospital-urology",
    "zip_code": "49036"
  },
  {
    "name": "Jobst Medication Therapy Management - ProMedica Health and Wellness Center",
    "direct_url": "jobst-medication-therapy-management-promedica-health-and-wellness-center",
    "zip_code": "43560"
  },
  {
    "name": "Jobst Medication Therapy Management - Adrian",
    "direct_url": "jobst-medication-therapy-management-adrian",
    "zip_code": "49221"
  },
  {
    "name": "Diabetes Education - ProMedica Charles and Virginia Hickman Hospital",
    "direct_url": "diabetes-education-promedica-charles-and-virginia-hickman-hospital",
    "zip_code": "49221"
  },
  {
    "name": "Diabetes Education - ProMedica Monroe Regional Hospital",
    "direct_url": "diabetes-education-promedica-monroe-regional-hospital",
    "zip_code": "48162"
  },
  {
    "name": "Diabetes Education - ProMedica Bay Park Hospital",
    "direct_url": "diabetes-education-promedica-bay-park-hospital",
    "zip_code": "43616"
  },
  {
    "name": "Diabetes Education - ProMedica Fostoria Community Hospital",
    "direct_url": "diabetes-education-promedica-fostoria-community-hospital",
    "zip_code": "44830"
  },
  {
    "name": "Diabetes Education - ProMedica Defiance Regional Hospital",
    "direct_url": "diabetes-education-promedica-defiance-regional-hospital",
    "zip_code": "43512"
  },
  {
    "name": "Diabetes Education - ProMedica Memorial Hospital",
    "direct_url": "diabetes-education-promedica-memorial-hospital",
    "zip_code": "43420"
  },
  {
    "name": "ProMedica Fostoria Community Hospital Dialysis Center",
    "direct_url": "promedica-fostoria-community-hospital-dialysis-center",
    "zip_code": "44830"
  },
  {
    "name": "ProMedica Charles and Virginia Hickman Hospital - Laboratory",
    "direct_url": "promedica-charles-and-virginia-hickman-hospital-laboratory",
    "zip_code": "49221"
  },
  {
    "name": "ProMedica Charles and Virginia Hickman Hospital - Womens Health Center",
    "direct_url": "promedica-charles-and-virginia-hickman-hospital-women-s-health-center",
    "zip_code": "49221"
  },
  {
    "name": "ProMedica Charles and Virginia Hickman Hospital - Emergency Center",
    "direct_url": "promedica-charles-and-virginia-hickman-hospital-emergency-center",
    "zip_code": "49221"
  },
  {
    "name": "ProMedica Toledo Hospital Emergency and Urgent Care",
    "direct_url": "promedica-toledo-hospital-emergency-and-urgent-care",
    "zip_code": "43537"
  },
  {
    "name": "ProMedica Headquarters",
    "direct_url": "promedica-headquarters",
    "zip_code": "43604"
  },
  {
    "name": "ProMedica Comprehensive Pediatric Sickle Cell Clinic",
    "direct_url": "promedica-comprehensive-pediatric-sickle-cell-clinic",
    "zip_code": "43606"
  },
  {
    "name": "ProMedica Monroe Regional Hospital - Palliative Medicine",
    "direct_url": "promedica-monroe-regional-hospital-palliative-medicine",
    "zip_code": null
  },
  {
    "name": "Macomb Pharmacy - ProMedica Monroe Regional Hospital",
    "direct_url": "macomb-pharmacy-promedica-monroe-regional-hospital",
    "zip_code": "48162"
  },
  {
    "name": "ProMedica COVID Care Clinic",
    "direct_url": "promedica-covid-care-clinic",
    "zip_code": "43560"
  },
  {
    "name": "ProMedica Spine Care - Fostoria",
    "direct_url": "promedica-spine-care-fostoria",
    "zip_code": "44830"
  }
]
